     2.10           G: GLONASS NAV DATA                     RINEX VERSION / TYPE
teqc  2015Jun23                         20211009 01:25:47UTCPGM / RUN BY / DATE
Linux 2.4.21-27.ELsmp|Opteron|gcc -static|Linux x86_64|=+   COMMENT
  2021     9    15   -1.396983861923D-09                    CORR TO SYSTEM TIME
                                                            END OF HEADER
20 21  9 16  7 45  0.0-5.598179996014D-05-0.000000000000D+00 2.700000000000D+04
    8.637498535156D+03 4.596014022827D-01 3.725290298462D-09 0.000000000000D+00
    2.015004003906D+04 1.744760513306D+00 0.000000000000D+00 2.000000000000D+00
    1.307147802734D+04-2.991356849670D+00 0.000000000000D+00 0.000000000000D+00
 5 21  9 16  8 15  0.0 7.904134690762D-05 9.094947017729D-13 2.880000000000D+04
   -8.216347656250D+02-3.076265335083D+00 2.793967723846D-09 0.000000000000D+00
    1.088018164062D+04-7.106189727783D-01-0.000000000000D+00 1.000000000000D+00
    2.306282080078D+04 2.233886718750D-01-1.862645149231D-09 0.000000000000D+00
15 21  9 16  8 15  0.0 1.014415174723D-04-0.000000000000D+00 2.880000000000D+04
   -1.832882519531D+04 4.793643951416D-01-9.313225746155D-10 0.000000000000D+00
    1.728706005859D+04-3.034029006958D-01-1.862645149231D-09 0.000000000000D+00
    4.024037597656D+03 3.509979248047D+00-1.862645149231D-09 0.000000000000D+00
16 21  9 16  8 15  0.0-2.150889486074D-05-9.094947017729D-13 2.880000000000D+04
   -7.748229003906D+03-1.204213142395D+00-9.313225746155D-10 0.000000000000D+00
    1.962713671875D+04 1.540060043335D+00-1.862645149231D-09-1.000000000000D+00
   -1.425007714844D+04 2.790435791016D+00 0.000000000000D+00 0.000000000000D+00
18 21  9 16  8 15  0.0 9.059440344572D-05 9.094947017729D-13 2.880000000000D+04
   -7.378811035156D+03-8.212280273438D-01-2.793967723846D-09 0.000000000000D+00
    1.002750292969D+04-2.943160057068D+00-9.313225746155D-10-3.000000000000D+00
   -2.225880615234D+04-1.049275398254D+00 9.313225746155D-10 0.000000000000D+00
19 21  9 16  8 15  0.0-1.595653593540D-04-9.094947017729D-13 2.880000000000D+04
    3.156845703125D+02-2.560262680054D-01-0.000000000000D+00 0.000000000000D+00
    2.214124121094D+04-1.730324745178D+00-9.313225746155D-10 3.000000000000D+00
   -1.265231591797D+04-3.036191940308D+00 9.313225746155D-10 0.000000000000D+00
20 21  9 16  8 15  0.0-5.598273128271D-05-0.000000000000D+00 2.880000000000D+04
    9.541878417969D+03 5.027675628662D-01 2.793967723846D-09 0.000000000000D+00
    2.253688037109D+04 8.920106887817D-01-0.000000000000D+00 2.000000000000D+00
    7.252085937500D+03-3.432723045349D+00 0.000000000000D+00 0.000000000000D+00
 9 21  9 16  8 15  0.0 1.349486410618D-05 1.818989403546D-12 3.003000000000D+04
    5.547213867188D+03-2.033386230469D+00-9.313225746155D-10 0.000000000000D+00
    1.052388134766D+04 2.327213287354D+00-0.000000000000D+00-2.000000000000D+00
   -2.254894287109D+04 5.784673690796D-01 1.862645149231D-09 0.000000000000D+00
19 21  9 16  8 45  0.0-1.595681533217D-04-9.094947017729D-13 3.060000000000D+04
   -6.053041992188D+02-7.863702774048D-01-9.313225746155D-10 0.000000000000D+00
    1.848983935547D+04-2.282925605774D+00-9.313225746155D-10 3.000000000000D+00
   -1.755743212891D+04-2.378564834595D+00 9.313225746155D-10 0.000000000000D+00
 9 21  9 16  8 45  0.0 1.349765807390D-05 1.818989403546D-12 3.060000000000D+04
    2.312606933594D+03-1.540384292603D+00-9.313225746155D-10 0.000000000000D+00
    1.479487890625D+04 2.372797966003D+00-9.313225746155D-10-2.000000000000D+00
   -2.064864794922D+04 1.519036293030D+00 1.862645149231D-09 0.000000000000D+00
15 21  9 16  8 45  0.0 1.014415174723D-04-0.000000000000D+00 3.060000000000D+04
   -1.705171435547D+04 8.994235992432D-01-0.000000000000D+00 0.000000000000D+00
    1.607563769531D+04-1.054161071777D+00-9.313225746155D-10 0.000000000000D+00
    1.010500830078D+04 3.202863693237D+00-2.793967723846D-09 0.000000000000D+00
16 21  9 16  8 45  0.0-2.151168882847D-05-9.094947017729D-13 3.060000000000D+04
   -9.329100097656D+03-5.642395019531D-01-9.313225746155D-10 0.000000000000D+00
    2.200656933594D+04 1.061940193176D+00-1.862645149231D-09-1.000000000000D+00
   -8.738404296875D+03 3.293761253357D+00-0.000000000000D+00 0.000000000000D+00
20 21  9 16  8 45  0.0-5.598366260529D-05-0.000000000000D+00 3.060000000000D+04
    1.029070605469D+04 2.862644195557D-01 1.862645149231D-09 0.000000000000D+00
    2.334257861328D+04 8.180618286133D-03-9.313225746155D-10 2.000000000000D+00
    8.730322265625D+02-3.609176635742D+00 9.313225746155D-10 0.000000000000D+00
 5 21  9 16  8 45  0.0 7.904227823019D-05 9.094947017729D-13 3.102000000000D+04
   -6.409603027344D+03-3.080739021301D+00 9.313225746155D-10 0.000000000000D+00
    1.001595410156D+04-2.446184158325D-01-9.313225746155D-10 1.000000000000D+00
    2.256879150391D+04-7.688255310059D-01-2.793967723846D-09 0.000000000000D+00
15 21  9 16  9 15  0.0 1.014415174723D-04-0.000000000000D+00 3.240000000000D+04
   -1.524475927734D+04 1.064565658569D+00-0.000000000000D+00 0.000000000000D+00
    1.348419433594D+04-1.817857742310D+00-9.313225746155D-10 0.000000000000D+00
    1.540577294922D+04 2.648761749268D+00-2.793967723846D-09 0.000000000000D+00
 9 21  9 16  9 15  0.0 1.350138336420D-05 1.818989403546D-12 3.240000000000D+04
    4.295410156250D+01-9.790782928467D-01-1.862645149231D-09 0.000000000000D+00
    1.889575244141D+04 2.136225700378D+00-9.313225746155D-10-2.000000000000D+00
   -1.715179296875D+04 2.340960502625D+00 9.313225746155D-10 0.000000000000D+00
16 21  9 16  9 15  0.0-2.151448279619D-05-9.094947017729D-13 3.240000000000D+04
   -9.852097656250D+03-4.444122314453D-02-9.313225746155D-10 0.000000000000D+00
    2.331777001953D+04 3.645238876343D-01-1.862645149231D-09-1.000000000000D+00
   -2.546501464844D+03 3.541158676147D+00-9.313225746155D-10 0.000000000000D+00
19 21  9 16  9 15  0.0-1.595709472895D-04-9.094947017729D-13 3.240000000000D+04
   -2.551761718750D+03-1.377092361450D+00-2.793967723846D-09 0.000000000000D+00
    1.409566503906D+04-2.548817634583D+00-0.000000000000D+00 3.000000000000D+00
   -2.110463281250D+04-1.537220954895D+00 9.313225746155D-10 0.000000000000D+00
20 21  9 16  9 15  0.0-5.598366260529D-05-0.000000000000D+00 3.240000000000D+04
    1.042808105469D+04-1.693344116211D-01 9.313225746155D-10 0.000000000000D+00
    2.261953417969D+04-7.875404357910D-01-9.313225746155D-10 2.000000000000D+00
   -5.573387207031D+03-3.507078170776D+00 9.313225746155D-10 0.000000000000D+00
 5 21  9 16  9 15  0.0 7.904320955276D-05 9.094947017729D-13 3.255000000000D+04
   -1.172740429688D+04-2.778637886047D+00 0.000000000000D+00 0.000000000000D+00
    9.984631347656D+03 1.966934204102D-01-9.313225746155D-10 1.000000000000D+00
    2.033050244141D+04-1.702098846436D+00-2.793967723846D-09 0.000000000000D+00
21 21  9 16  9 15  0.0-2.396674826741D-04-3.637978807092D-12 3.294000000000D+04
    1.617155273438D+04 1.148535728455D+00 3.725290298462D-09 0.000000000000D+00
    1.434456103516D+04 1.468677520752D+00-9.313225746155D-10 4.000000000000D+00
    1.350922851562D+04-2.936952590942D+00 0.000000000000D+00 0.000000000000D+00
21 21  9 16  9 45  0.0-2.396730706096D-04-3.637978807092D-12 3.420000000000D+04
    1.801245019531D+04 8.518495559692D-01 2.793967723846D-09 0.000000000000D+00
    1.627598681641D+04 6.794509887695D-01-9.313225746155D-10 4.000000000000D+00
    7.767778320312D+03-3.400943756104D+00 0.000000000000D+00 0.000000000000D+00
15 21  9 16  9 45  0.0 1.014415174723D-04 0.000000000000D+00 3.420000000000D+04
   -1.337209228516D+04 9.764976501465D-01 0.000000000000D+00 0.000000000000D+00
    9.591667968750D+03-2.481445312500D+00-9.313225746155D-10 0.000000000000D+00
    1.951785742188D+04 1.890693664551D+00-2.793967723846D-09 0.000000000000D+00
 5 21  9 16  9 45  0.0 7.904227823019D-05 9.094947017729D-13 3.420000000000D+04
   -1.625080908203D+04-2.208094596863D+00-9.313225746155D-10 0.000000000000D+00
    1.064716015625D+04 5.106420516968D-01-9.313225746155D-10 1.000000000000D+00
    1.652012939453D+04-2.504220008850D+00-2.793967723846D-09 0.000000000000D+00
 9 21  9 16  9 45  0.0 1.350510865450D-05 1.818989403546D-12 3.420000000000D+04
   -1.235712402344D+03-4.567899703979D-01-1.862645149231D-09 0.000000000000D+00
    2.232164453125D+04 1.628374099731D+00-9.313225746155D-10-2.000000000000D+00
   -1.233050048828D+04 2.981182098389D+00 0.000000000000D+00 0.000000000000D+00
16 21  9 16  9 45  0.0-2.151727676392D-05-9.094947017729D-13 3.420000000000D+04
   -9.609162109375D+03 2.765207290649D-01-9.313225746155D-10 0.000000000000D+00
    2.323795556641D+04-4.669008255005D-01-9.313225746155D-10-1.000000000000D+00
    3.843798339844D+03 3.512684822083D+00-1.862645149231D-09 0.000000000000D+00
19 21  9 16  9 45  0.0-1.595737412572D-04-9.094947017729D-13 3.420000000000D+04
   -5.530739746094D+03-1.914494514465D+00-3.725290298462D-09 0.000000000000D+00
    9.497254882812D+03-2.511071205139D+00 0.000000000000D+00 3.000000000000D+00
   -2.302010742188D+04-5.773172378540D-01 9.313225746155D-10 0.000000000000D+00
20 21  9 16  9 45  0.0-5.598459392786D-05-0.000000000000D+00 3.420000000000D+04
    9.575559082031D+03-7.996997833252D-01-0.000000000000D+00 0.000000000000D+00
    2.062257958984D+04-1.392468452454D+00-9.313225746155D-10 2.000000000000D+00
   -1.158956494141D+04-3.134205818176D+00 9.313225746155D-10 0.000000000000D+00
10 21  9 16  9 45  0.0-7.504411041737D-05-0.000000000000D+00 3.576000000000D+04
    7.833716308594D+03-9.549160003662D-01-9.313225746155D-10 0.000000000000D+00
    9.838152832031D+03 2.884368896484D+00-0.000000000000D+00-7.000000000000D+00
   -2.218098974609D+04 9.483146667480D-01 1.862645149231D-09 0.000000000000D+00
21 21  9 16 10 15  0.0-2.396786585450D-04-3.637978807092D-12 3.600000000000D+04
    1.908665820312D+04 3.040781021118D-01 1.862645149231D-09 0.000000000000D+00
    1.683292675781D+04-3.973770141602D-02-1.862645149231D-09 4.000000000000D+00
    1.424346679688D+03-3.601436614990D+00 9.313225746155D-10 0.000000000000D+00
